[{"OBJECT_NAME":"STARLINK-3138","OBJECT_ID":"2021-104Y","EPOCH":"2026-03-09T18:15:29.554272","MEAN_MOTION":15.08838589,"ECCENTRICITY":0.00012775,"INCLINATION":53.2166,"RA_OF_ASC_NODE":229.0841,"ARG_OF_PERICENTER":82.1387,"MEAN_ANOMALY":277.9751,"EPHEMERIS_TYPE":0,"CLASSIFICATION_TYPE":"U","NORAD_CAT_ID":49430,"ELEMENT_SET_NO":999,"REV_AT_EPOCH":23864,"BSTAR":8.9419211e-5,"MEAN_MOTION_DOT":1.135e-5,"MEAN_MOTION_DDOT":0},{"OBJECT_NAME":"SL-24 R\/B","OBJECT_ID":"2007-026B","EPOCH":"2026-03-09T22:40:02.756640","MEAN_MOTION":14.45860602,"ECCENTRICITY":0.0332074,"INCLINATION":97.4507,"RA_OF_ASC_NODE":51.0844,"ARG_OF_PERICENTER":307.0569,"MEAN_ANOMALY":107.0995,"EPHEMERIS_TYPE":0,"CLASSIFICATION_TYPE":"U","NORAD_CAT_ID":31699,"ELEMENT_SET_NO":999,"REV_AT_EPOCH":98518,"BSTAR":0.00024180062,"MEAN_MOTION_DOT":1.655e-5,"MEAN_MOTION_DDOT":0}]
